{
  "links" : {
    "next" : "https://api.nasa.gov/neo/rest/v1/feed?start_date=2016-01-16&end_date=2016-01-16&detailed=true&api_key=t0TVs3DtDT2H8Oy2Zy8m2eVrNsAVKAexjcZXUckd",
    "prev" : "https://api.nasa.gov/neo/rest/v1/feed?start_date=2016-01-14&end_date=2016-01-14&detailed=true&api_key=t0TVs3DtDT2H8Oy2Zy8m2eVrNsAVKAexjcZXUckd",
    "self" : "https://api.nasa.gov/neo/rest/v1/feed?start_date=2016-01-15&end_date=2016-01-15&detailed=true&api_key=t0TVs3DtDT2H8Oy2Zy8m2eVrNsAVKAexjcZXUckd"
  },
  "element_count" : 11,
  "near_earth_objects" : {
    "2016-01-15" : [ {
      "links" : {
        "self" : "https://api.nasa.gov/neo/rest/v1/neo/3741554?api_key=t0TVs3DtDT2H8Oy2Zy8m2eVrNsAVKAexjcZXUckd"
      },
      "neo_reference_id" : "3741554",
      "name" : "(2016 CE29)",
      "nasa_jpl_url" : "http://ssd.jpl.nasa.gov/sbdb.cgi?sstr=3741554",
      "absolute_magnitude_h" : 23.4,
      "estimated_diameter" : {
        "kilometers" : {
          "estimated_diameter_min" : 0.0555334912,
          "estimated_diameter_max" : 0.1241766613
        },
        "meters" : {
          "estimated_diameter_min" : 55.5334911581,
          "estimated_diameter_max" : 124.1766612574
        },
        "miles" : {
          "estimated_diameter_min" : 0.0345069009,
          "estimated_diameter_max" : 0.0771597762
        },
        "feet" : {
          "estimated_diameter_min" : 182.1964991311,
          "estimated_diameter_max" : 407.4037573197
        }
      },
      "is_potentially_hazardous_asteroid" : false,
      "close_approach_data" : [ {
        "close_approach_date" : "2016-01-15",
        "epoch_date_close_approach" : 1452844800000,
        "relative_velocity" : {
          "kilometers_per_second" : "21.4605721347",
          "kilometers_per_hour" : "77258.0596848257",
          "miles_per_hour" : "48005.1538080518"
        },
        "miss_distance" : {
          "astronomical" : "0.0618677253",
          "lunar" : "24.0665454865",
          "kilometers" : "9255280",
          "miles" : "5750964.5"
        },
        "orbiting_body" : "Earth"
      } ],
      "orbital_data" : {
        "orbit_id" : "4",
        "orbit_determination_date" : "2017-04-06 08:28:44",
        "orbit_uncertainty" : "9",
        "minimum_orbit_intersection" : ".024159",
        "jupiter_tisserand_invariant" : "3.568",
        "epoch_osculation" : "2457423.5",
        "eccentricity" : ".7263304792922274",
        "semi_major_axis" : "1.898182895602989",
        "inclination" : "4.929972958485457",
        "ascending_node_longitude" : "85.15350482686429",
        "orbital_period" : "955.2246264590864",
        "perihelion_distance" : ".5194748032553619",
        "perihelion_argument" : "295.506037524297",
        "aphelion_distance" : "3.276890987950615",
        "perihelion_time" : "2457357.625095153077",
        "mean_anomaly" : "24.82658537898156",
        "mean_motion" : ".3768747057270506",
        "equinox" : "J2000"
      }
    }, {
      "links" : {
        "self" : "https://api.nasa.gov/neo/rest/v1/neo/3753605?api_key=t0TVs3DtDT2H8Oy2Zy8m2eVrNsAVKAexjcZXUckd"
      },
      "neo_reference_id" : "3753605",
      "name" : "(2016 KS)",
      "nasa_jpl_url" : "http://ssd.jpl.nasa.gov/sbdb.cgi?sstr=3753605",
      "absolute_magnitude_h" : 23.8,
      "estimated_diameter" : {
        "kilometers" : {
          "estimated_diameter_min" : 0.046190746,
          "estimated_diameter_max" : 0.1032856481
        },
        "meters" : {
          "estimated_diameter_min" : 46.1907460282,
          "estimated_diameter_max" : 103.2856480504
        },
        "miles" : {
          "estimated_diameter_min" : 0.0287015901,
          "estimated_diameter_max" : 0.0641787064
        },
        "feet" : {
          "estimated_diameter_min" : 151.544447199,
          "estimated_diameter_max" : 338.8636855496
        }
      },
      "is_potentially_hazardous_asteroid" : false,
      "close_approach_data" : [ {
        "close_approach_date" : "2016-01-15",
        "epoch_date_close_approach" : 1452844800000,
        "relative_velocity" : {
          "kilometers_per_second" : "5.5726311382",
          "kilometers_per_hour" : "20061.4720974781",
          "miles_per_hour" : "12465.4185930136"
        },
        "miss_distance" : {
          "astronomical" : "0.312002948",
          "lunar" : "121.3691482544",
          "kilometers" : "46674980",
          "miles" : "29002486"
        },
        "orbiting_body" : "Earth"
      } ],
      "orbital_data" : {
        "orbit_id" : "10",
        "orbit_determination_date" : "2017-04-06 08:25:45",
        "orbit_uncertainty" : "8",
        "minimum_orbit_intersection" : ".0814229",
        "jupiter_tisserand_invariant" : "4.648",
        "epoch_osculation" : "2457538.5",
        "eccentricity" : ".3279650324855141",
        "semi_major_axis" : "1.414505374190571",
        "inclination" : "10.13321214821362",
        "ascending_node_longitude" : "81.0307109008108",
        "orbital_period" : "614.4765724488458",
        "perihelion_distance" : ".9505970731932259",
        "perihelion_argument" : "104.4187718226499",
        "aphelion_distance" : "1.878413675187916",
        "perihelion_time" : "2457482.034218831755",
        "mean_anomaly" : "33.0812957433954",
        "mean_motion" : ".5858644839221586",
        "equinox" : "J2000"
      }
    }, {
      "links" : {
        "self" : "https://api.nasa.gov/neo/rest/v1/neo/2450270?api_key=t0TVs3DtDT2H8Oy2Zy8m2eVrNsAVKAexjcZXUckd"
      },
      "neo_reference_id" : "2450270",
      "name" : "450270 (2004 AE)",
      "nasa_jpl_url" : "http://ssd.jpl.nasa.gov/sbdb.cgi?sstr=2450270",
      "absolute_magnitude_h" : 20.7,
      "estimated_diameter" : {
        "kilometers" : {
          "estimated_diameter_min" : 0.1925550782,
          "estimated_diameter_max" : 0.4305662442
        },
        "meters" : {
          "estimated_diameter_min" : 192.5550781879,
          "estimated_diameter_max" : 430.566244241
        },
        "miles" : {
          "estimated_diameter_min" : 0.1196481415,
          "estimated_diameter_max" : 0.2675413778
        },
        "feet" : {
          "estimated_diameter_min" : 631.7424027221,
          "estimated_diameter_max" : 1412.6189567557
        }
      },
      "is_potentially_hazardous_asteroid" : true,
      "close_approach_data" : [ {
        "close_approach_date" : "2016-01-15",
        "epoch_date_close_approach" : 1452844800000,
        "relative_velocity" : {
          "kilometers_per_second" : "13.1953865807",
          "kilometers_per_hour" : "47503.3916903976",
          "miles_per_hour" : "29516.7602422918"
        },
        "miss_distance" : {
          "astronomical" : "0.1285791854",
          "lunar" : "50.0173034668",
          "kilometers" : "19235172",
          "miles" : "11952182"
        },
        "orbiting_body" : "Earth"
      } ],
      "orbital_data" : {
        "orbit_id" : "27",
        "orbit_determination_date" : "2017-04-06 09:20:11",
        "orbit_uncertainty" : "0",
        "minimum_orbit_intersection" : ".0210776",
        "jupiter_tisserand_invariant" : "4.572",
        "epoch_osculation" : "2458000.5",
        "eccentricity" : ".332536322541127",
        "semi_major_axis" : "1.431569031076949",
        "inclination" : "18.72619129365827",
        "ascending_node_longitude" : "307.6014826271005",
        "orbital_period" : "625.6289964467994",
        "perihelion_distance" : ".9555203300188559",
        "perihelion_argument" : "193.1387786652338",
        "aphelion_distance" : "1.907617732135042",
        "perihelion_time" : "2458044.590702172587",
        "mean_anomaly" : "334.6292884884198",
        "mean_motion" : ".5754208996779016",
        "equinox" : "J2000"
      }
    } ]
  }
}